GPS BIIA-10 (PRN 32)    
1 20959U 90103A   13083.12069795 -.00000005  00000-0  00000+0 0  9133
2 20959  54.4126 227.3048 0116619 337.1026 347.5481  2.00556895163496
GPS BIIA-14 (PRN 26)    
1 22014U 92039A   13083.50485759  .00000010  00000-0  00000+0 0  7022
2 22014  56.1391 287.5812 0210309  70.0936 322.7595  2.00565141145231
GPS BIIA-15 (PRN 27)    
1 22108U 92058A   13083.34982760 -.00000061  00000-0  00000+0 0  6276
2 22108  56.2418 340.5048 0221406 306.2829 254.5485  2.00574094150415
GPS BIIA-21 (PRN 09)    
1 22700U 93042A   13083.32207736 -.00000062  00000-0  00000+0 0  9497
2 22700  56.3947 342.0862 0170480  94.1508 118.9637  2.00665679144576
GPS BIIA-22 (PRN 30)    
1 22779U 93054A   13083.12289213 -.00000042  00000-0  00000+0 0  6275
2 22779  55.1938  36.5706 0106714  92.2251 117.0489  2.00567399143321
GPS BIIA-23 (PRN 04)    
1 22877U 93068A   13083.35981106  .00000010  00000-0  00000+0 0  3051
2 22877  53.7282 162.1383 0101163  54.5341  35.8799  2.00551700142225
GPS BIIA-24 (PRN 06)    
1 23027U 94016A   13082.97877970  .00000056  00000-0  00000+0 0  2647
2 23027  53.8914  98.7691 0080075 337.6789  52.9154  2.00561935139526
GPS BIIA-25 (PRN 03)    
1 23833U 96019A   13082.95717625  .00000051  00000-0  10000-3 0  4625
2 23833  53.5081  94.2478 0157959  73.0884 288.6935  2.00562445124504
GPS BIIA-26 (PRN 10)    
1 23953U 96041A   13082.85387743 -.00000008  00000-0  00000+0 0  9528
2 23953  54.0844 223.3571 0121814  44.8504 342.4168  2.00569329122283
GPS BIIR-2  (PRN 13)    
1 24876U 97035A   13083.18805321  .00000011  00000-0  00000+0 0  4204
2 24876  56.2843 288.0030 0049285 119.8615 146.7502  2.00551730114821
GPS BIIA-28 (PRN 08)    
1 25030U 97067A   13083.14805299 -.00000068  00000-0  00000+0 0  3653
2 25030  57.1962 348.5959 0128221 196.0152 304.6391  2.00573817112727
GPS BIIR-3  (PRN 11)    
1 25933U 99055A   13083.07410207  .00000022  00000-0  10000-3 0  8544
2 25933  50.9209 145.6238 0136669  65.9635 295.5340  2.00561228 98644
GPS BIIR-4  (PRN 20)    
1 26360U 00025A   13083.21857325 -.00000012  00000-0  00000+0 0  9467
2 26360  53.1953 219.3688 0053012  73.4155 303.9086  2.00551192 94331
GPS BIIR-5  (PRN 28)    
1 26407U 00040A   13083.29077102 -.00000024  00000-0  00000+0 0  8979
2 26407  56.2983  45.4919 0188591 258.3469 282.7748  2.00567521 93014
GPS BIIR-6  (PRN 14)    
1 26605U 00071A   13083.32677247  .00000011  00000-0  00000+0 0  9126
2 26605  55.8660 286.3478 0069292 244.5758 253.9410  2.00557395 90618
GPS BIIR-7  (PRN 18)    
1 26690U 01004A   13083.51754791 -.00000010  00000-0  00000+0 0  7913
2 26690  53.1549 222.4222 0141475 238.8500 126.1069  2.00551320 89039
GPS BIIR-8  (PRN 16)    
1 27663U 03005A   13083.18893975 -.00000024  00000-0  00000+0 0  2233
2 27663  56.3883  45.1333 0070762   1.2729 225.8291  2.00571046 74376
GPS BIIR-9  (PRN 21)    
1 27704U 03010A   13083.08094971  .00000006  00000-0  00000+0 0  1062
2 27704  53.3722 162.3825 0203006 236.6158 233.9720  2.00558562 73169
GPS BIIR-10 (PRN 22)    
1 28129U 03058A   13083.10805534 -.00000011  00000-0  00000+0 0  6785
2 28129  53.0258 222.5961 0065685 243.6932 156.7124  2.00565141 67871
GPS BIIR-11 (PRN 19)    
1 28190U 04009A   13083.10985670  .00000063  00000-0  00000+0 0  6742
2 28190  55.1324 107.5651 0090168  14.5023  70.0723  2.00562420 66042
GPS BIIR-12 (PRN 23)    
1 28361U 04023A   13083.25734454  .00000010  00000-0  00000+0 0  4915
2 28361  54.8098 283.0535 0083632 194.5338 146.8834  2.00556394 64128
GPS BIIR-13 (PRN 02)    
1 28474U 04045A   13083.38362885  .00000012  00000-0  00000+0 0  3789
2 28474  53.7835 161.1910 0123112 209.8059 225.9350  2.00567741 61498
GPS BIIRM-1 (PRN 17)    
1 28874U 05038A   13083.26566473  .00000064  00000-0  00000+0 0  6388
2 28874  55.2900 104.5718 0084656 234.4038 218.0805  2.00571400 54913
GPS BIIRM-2 (PRN 31)    
1 29486U 06042A   13083.26942613 -.00000065  00000-0  00000+0 0   328
2 29486  56.1863 343.6870 0081712 315.5656  61.9742  2.00576392 47612
GPS BIIRM-3 (PRN 12)    
1 29601U 06052A   13083.38097285 -.00000026  00000-0  00000+0 0   616
2 29601  56.3473  44.0746 0044063   8.0064 131.8187  2.00572645 46525
GPS BIIRM-4 (PRN 15)    
1 32260U 07047A   13083.51109491  .00000008  00000-0  00000+0 0  7700
2 32260  53.9559 280.7390 0053672   6.5991   1.0928  2.00555979 39917
GPS BIIRM-5 (PRN 29)    
1 32384U 07062A   13083.50844847  .00000065  00000-0  00000+0 0  8067
2 32384  55.3256 105.0634 0021768 295.3199 202.7696  2.00563455 38642
GPS BIIRM-6 (PRN 07)    
1 32711U 08012A   13082.91356809 -.00000067  00000-0  10000-3 0  5613
2 32711  55.9000 343.4580 0061587 194.7075 165.1535  2.00560386 36849
GPS BIIRM-8 (PRN 05)    
1 35752U 09043A   13083.43374549 -.00000009  00000-0  00000+0 0  3175
2 35752  54.3799 222.1986 0029895  13.0369  28.7010  2.00573200 26427
GPS BIIF-1  (PRN 25)    
1 36585U 10022A   13083.42574531 -.00000032  00000-0  00000+0 0  1287
2 36585  55.7075  41.9226 0022694  27.6086 116.4785  2.00576297 20679
GPS BIIF-2  (PRN 01)    
1 37753U 11036A   13083.21114659  .00000010  00000-0  00000+0 0  5929
2 37753  55.0144 162.3578 0016413  10.5020  63.6068  2.00560006 12350
GPS BIIF-3  (PRN 24)    
1 38833U 12053A   13083.09555207 -.00000066  00000-0  00000+0 0  1392
2 38833  54.9575 341.8776 0008163   2.0529 357.9917  2.00561368  3414
